NORAD_CAT_ID,OBJECT_NAME,OBJECT_TYPE,EPOCH,MEAN_MOTION,ECCENTRICITY,INCLINATION,RA_OF_ASC_NODE,ARG_OF_PERICENTER,MEAN_ANOMALY,BSTAR,MEAN_MOTION_DOT,MEAN_MOTION_DDOT,TLE_LINE0,TLE_LINE1,TLE_LINE2,SEMIMAJOR_AXIS,PERIOD,APOGEE,PERIGEE,DECAYED
55436.0,STARLINK-5640,PAYLOAD,2023-04-02 13:34:11,14.9833366,0.0003432,69.9972,287.7144,267.2152,92.8614,5.0739e-05,5.12e-06,0.0,0 STARLINK-5640,1 55436U 23014AX  23092.56541423  .00000512  00000-0  50739-4 0  9995,2 55436  69.9972 287.7144 0003432 267.2152  92.8614 14.98333660 10472,6950.182,96.107,574.432,569.661,0.0
55436.0,STARLINK-5640,PAYLOAD,2023-04-02 19:58:43,14.98334957,0.0003405,69.9973,287.041,267.1337,92.9432,6.3873e-05,6.69e-06,0.0,0 STARLINK-5640,1 55436U 23014AX  23092.83245241  .00000669  00000-0  63873-4 0  9990,2 55436  69.9973 287.0410 0003405 267.1337  92.9432 14.98334957  9574,6950.178,96.107,574.409,569.676,0.0
55436.0,STARLINK-5640,PAYLOAD,2023-04-02 21:34:51,14.98335557,0.0003398,69.9974,286.8727,267.1216,92.9554,6.9835e-05,7.4e-06,0.0,0 STARLINK-5640,1 55436U 23014AX  23092.89921168  .00000740  00000-0  69835-4 0  9999,2 55436  69.9974 286.8727 0003398 267.1216  92.9554 14.98335557 10529,6950.176,96.107,574.402,569.679,0.0
55436.0,STARLINK-5640,PAYLOAD,2023-04-03 12:00:04,14.98330912,0.00034,69.9973,285.3574,267.5144,92.5625,6.0301e-05,6.27e-06,0.0,0 STARLINK-5640,1 55436U 23014AX  23093.50005379  .00000627  00000-0  60301-4 0  9998,2 55436  69.9973 285.3574 0003400 267.5144  92.5625 14.98330912 10615,6950.19,96.107,574.418,569.692,0.0
55436.0,STARLINK-5640,PAYLOAD,2023-04-03 23:13:00,14.98333007,0.0003388,69.9973,284.1788,267.6113,92.4658,7.4486e-05,7.96e-06,0.0,0 STARLINK-5640,1 55436U 23014AX  23093.96737159  .00000796  00000-0  74486-4 0  9992,2 55436  69.9973 284.1788 0003388 267.6113  92.4658 14.98333007  9746,6950.184,96.107,574.403,569.694,0.0
55436.0,STARLINK-5640,PAYLOAD,2023-04-04 05:37:33,14.98329785,0.0003381,69.9973,283.5053,267.8911,92.1861,1.9596e-05,1.41e-06,0.0,0 STARLINK-5640,1 55436U 23014AX  23094.23441473  .00000141  00000-0  19596-4 0  9999,2 55436  69.9973 283.5053 0003381 267.8911  92.1861 14.98329785 10726,6950.194,96.107,574.408,569.709,0.0
55436.0,STARLINK-5640,PAYLOAD,2023-04-04 21:38:54,14.98329871,0.0003297,69.9972,281.8217,268.9974,91.0807,-4.3309e-05,-6.1e-06,0.0,0 STARLINK-5640,1 55436U 23014AX  23094.90201611 -.00000610  00000-0 -43309-4 0  9993,2 55436  69.9972 281.8217 0003297 268.9974  91.0807 14.98329871 10820,6950.193,96.107,574.35,569.767,0.0
55436.0,STARLINK-5640,PAYLOAD,2023-04-05 13:40:14,14.98329094,0.0003345,69.9985,280.1389,269.3371,90.7405,-3.4425e-06,-1.34e-06,0.0,0 STARLINK-5640,1 55436U 23014AX  23095.56961537 -.00000134  00000-0 -34425-5 0  9997,2 55436  69.9985 280.1389 0003345 269.3371  90.7405 14.98329094 10924,6950.196,96.107,574.386,569.736,0.0
55436.0,STARLINK-5640,PAYLOAD,2023-04-05 20:04:46,14.98330272,0.0003307,69.9979,279.4647,269.9972,90.0809,1.0117e-06,-8.1e-07,0.0,0 STARLINK-5640,1 55436U 23014AX  23095.83665451 -.00000081  00000-0  10117-5 0  9995,2 55436  69.9979 279.4647 0003307 269.9972  90.0809 14.98330272 10961,6950.192,96.107,574.355,569.759,0.0
55436.0,STARLINK-5640,PAYLOAD,2023-04-05 21:40:55,14.98330086,0.0003323,69.9978,279.2963,270.0385,90.0393,-1.8693e-06,-1.15e-06,0.0,0 STARLINK-5640,1 55436U 23014AX  23095.90341466 -.00000115  00000-0 -18693-5 0  9996,2 55436  69.9978 279.2963 0003323 270.0385  90.0393 14.98330086 10037,6950.193,96.107,574.367,569.748,0.0
55436.0,STARLINK-5640,PAYLOAD,2023-04-06 12:06:07,14.98328587,0.0003418,69.9973,277.7812,271.0057,89.071,5.6136e-05,5.77e-06,0.0,0 STARLINK-5640,1 55436U 23014AX  23096.50425377  .00000577  00000-0  56136-4 0  9990,2 55436  69.9973 277.7812 0003418 271.0057  89.0710 14.98328587 11068,6950.197,96.107,574.438,569.687,0.0
55436.0,STARLINK-5640,PAYLOAD,2023-04-06 18:30:39,14.98331652,0.0003414,69.9973,277.1076,270.6832,89.3936,6.114e-05,6.37e-06,0.0,0 STARLINK-5640,1 55436U 23014AX  23096.77129183  .00000637  00000-0  61140-4 0  9993,2 55436  69.9973 277.1076 0003414 270.6832  89.3936 14.98331652 11101,6950.188,96.107,574.426,569.68,0.0
55436.0,STARLINK-5640,PAYLOAD,2023-04-06 23:19:03,14.98333345,0.0003391,69.9973,276.6027,270.9554,89.1216,7.7611e-05,8.33e-06,0.0,0 STARLINK-5640,1 55436U 23014AX  23096.97157009  .00000833  00000-0  77611-4 0  9991,2 55436  69.9973 276.6027 0003391 270.9554  89.1216 14.98333345 10197,6950.183,96.107,574.404,569.691,0.0
55436.0,STARLINK-5640,PAYLOAD,2023-04-07 12:08:08,14.98328865,0.0003347,69.9974,275.256,270.889,89.1886,1.9275e-05,1.37e-06,0.0,0 STARLINK-5640,1 55436U 23014AX  23097.50565438  .00000137  00000-0  19275-4 0  9999,2 55436  69.9974 275.2560 0003347 270.8890  89.1886 14.98328865 11216,6950.196,96.107,574.388,569.735,0.0
55436.0,STARLINK-5640,PAYLOAD,2023-04-07 23:21:04,14.98334249,0.0003346,69.9975,274.0777,271.1048,88.9728,6.0159e-05,6.25e-06,0.0,0 STARLINK-5640,1 55436U 23014AX  23097.97296944  .00000625  00000-0  60159-4 0  9992,2 55436  69.9975 274.0777 0003346 271.1048  88.9728 14.98334249 10340,6950.18,96.107,574.37,569.719,0.0
55436.0,STARLINK-5640,PAYLOAD,2023-04-08 12:10:09,14.98329954,0.00032,69.9977,272.7307,271.7953,88.284,-3.1025e-05,-4.63e-06,0.0,0 STARLINK-5640,1 55436U 23014AX  23098.50705461 -.00000463  00000-0 -31025-4 0  9993,2 55436  69.9977 272.7307 0003200 271.7953  88.2840 14.98329954 11364,6950.193,96.107,574.282,569.834,0.0
55436.0,STARLINK-5640,PAYLOAD,2023-04-08 18:34:41,14.98330237,0.0003159,69.9983,272.0582,269.7838,90.2959,-1.8497e-05,-3.14e-06,0.0,0 STARLINK-5640,1 55436U 23014AX  23098.77409391 -.00000314  00000-0 -18497-4 0  9998,2 55436  69.9983 272.0582 0003159 269.7838  90.2959 14.98330237 10461,6950.192,96.107,574.253,569.862,0.0
55436.0,STARLINK-5640,PAYLOAD,2023-04-08 23:23:05,14.98331873,0.0003182,69.9982,271.5529,270.4716,89.6078,-1.731e-06,-1.14e-06,0.0,0 STARLINK-5640,1 55436U 23014AX  23098.97437233 -.00000114  00000-0 -17310-5 0  9998,2 55436  69.9982 271.5529 0003182 270.4716  89.6078 14.98331873 11434,6950.187,96.107,574.264,569.841,0.0
55436.0,STARLINK-5640,PAYLOAD,2023-04-09 21:48:58,14.98333117,0.0003174,69.9984,269.1961,270.8364,89.2432,3.0654e-05,2.73e-06,0.0,0 STARLINK-5640,1 55436U 23014AX  23099.90901013  .00000273  00000-0  30654-4 0  9993,2 55436  69.9984 269.1961 0003174 270.8364  89.2432 14.98333117 11571,6950.183,96.107,574.254,569.842,0.0
55436.0,STARLINK-5640,PAYLOAD,2023-04-10 04:13:30,14.98333018,0.0003172,69.9984,268.5227,271.1022,88.9774,4.4235e-05,4.35e-06,0.0,0 STARLINK-5640,1 55436U 23014AX  23100.17604958  .00000435  00000-0  44235-4 0  9993,2 55436  69.9984 268.5227 0003172 271.1022  88.9774 14.98333018 10677,6950.184,96.107,574.253,569.844,0.0
55436.0,STARLINK-5640,PAYLOAD,2023-04-10 13:50:19,14.98328128,0.0003241,69.9982,267.5124,270.3899,89.6889,8.8225e-06,1.2e-07,0.0,0 STARLINK-5640,1 55436U 23014AX  23100.57661375  .00000012  00000-0  88225-5 0  9992,2 55436  69.9982 267.5124 0003241 270.3899  89.6889 14.98328128 11672,6950.199,96.107,574.316,569.811,0.0
55436.0,STARLINK-5640,PAYLOAD,2023-04-10 17:02:35,14.98329821,0.0003322,69.998,267.1759,268.1647,91.9131,2.0869e-05,1.56e-06,0.0,0 STARLINK-5640,1 55436U 23014AX  23100.71013210  .00000156  00000-0  20869-4 0  9995,2 55436  69.9980 267.1759 0003322 268.1647  91.9131 14.98329821 11695,6950.193,96.107,574.367,569.75,0.0
55436.0,STARLINK-5640,PAYLOAD,2023-04-11 04:15:31,14.98332714,0.0003309,69.9982,265.9975,269.0845,90.9935,3.8737e-05,3.69e-06,0.0,0 STARLINK-5640,1 55436U 23014AX  23101.17744938  .00000369  00000-0  38737-4 0  9993,2 55436  69.9982 265.9975 0003309 269.0845  90.9935 14.98332714 10828,6950.184,96.107,574.349,569.75,0.0
55436.0,STARLINK-5640,PAYLOAD,2023-04-11 12:16:12,14.98328989,0.0003268,69.9984,265.1561,269.0113,91.0671,-2.4503e-05,-3.85e-06,0.0,0 STARLINK-5640,1 55436U 23014AX  23101.51125372 -.00000385  00000-0 -24503-4 0  9992,2 55436  69.9984 265.1561 0003268 269.0113  91.0671 14.98328989 11813,6950.196,96.107,574.332,569.79,0.0
55436.0,STARLINK-5640,PAYLOAD,2023-04-11 17:04:36,14.98331344,0.0003242,69.9986,264.6514,268.8854,91.1933,3.8123e-06,-4.8e-07,0.0,0 STARLINK-5640,1 55436U 23014AX  23101.71153147 -.00000048  00000-0  38123-5 0  9994,2 55436  69.9986 264.6514 0003242 268.8854  91.1933 14.98331344 11842,6950.189,96.107,574.307,569.8,0.0
55436.0,STARLINK-5640,PAYLOAD,2023-04-12 04:17:32,14.98325977,0.0003466,69.9964,263.4722,264.2385,95.8379,8.2917e-05,8.96e-06,0.0,0 STARLINK-5640,1 55436U 23014AX  23102.17885187  .00000896  00000-0  82917-4 0  9990,2 55436  69.9964 263.4722 0003466 264.2385  95.8379 14.98325977 10976,6950.205,96.107,574.479,569.661,0.0
55436.0,STARLINK-5640,PAYLOAD,2023-04-12 12:18:12,14.98336567,0.0003269,69.9957,262.6299,269.0992,90.9792,-6.5554e-05,-8.75e-06,0.0,0 STARLINK-5640,1 55436U 23014AX  23102.51264992 -.00000875  00000-0 -65554-4 0  9990,2 55436  69.9957 262.6299 0003269 269.0992  90.9792 14.98336567 11968,6950.173,96.107,574.31,569.766,0.0
55436.0,STARLINK-5640,PAYLOAD,2023-04-13 10:44:05,14.9832702,0.0003243,69.9971,260.2733,269.3963,90.6824,6.6587e-05,7.01e-06,0.0,0 STARLINK-5640,1 55436U 23014AX  23103.44729088  .00000701  00000-0  66587-4 0  9998,2 55436  69.9971 260.2733 0003243 269.3963  90.6824 14.98327020 12108,6950.202,96.107,574.321,569.813,0.0
55436.0,STARLINK-5640,PAYLOAD,2023-04-14 12:22:14,14.98329826,0.0003222,69.9981,257.58,270.3556,89.7234,-4.2042e-06,-1.43e-06,0.0,0 STARLINK-5640,1 55436U 23014AX  23104.51545006 -.00000143  00000-0 -42042-5 0  9996,2 55436  69.9981 257.5800 0003222 270.3556  89.7234 14.98329826 11323,6950.193,96.107,574.298,569.819,0.0
55436.0,STARLINK-5640,PAYLOAD,2023-04-15 02:47:26,14.98333971,0.0003155,69.9985,256.0651,270.3995,89.6803,6.5588e-05,6.9e-06,0.0,0 STARLINK-5640,1 55436U 23014AX  23105.11628443  .00000690  00000-0  65588-4 0  9994,2 55436  69.9985 256.0651 0003155 270.3995  89.6803 14.98333971 11414,6950.181,96.107,574.238,569.853,0.0
